start=new Date('2022-01-26T00:00:00.000Z').valueOf();
sats=[{"PERIAPSIS":"546.163","ELEMENT_SET_NO":"999","GP_ID":"194643520","RCS_SIZE":"LARGE","MEAN_MOTION":"15.06397096","FILE":"3283711","OBJECT_ID":"2020-073K","MEAN_ANOMALY":"291.4775","MEAN_MOTION_DDOT":"0.0000000000000","ARG_OF_PERICENTER":"68.6378","TIME_SYSTEM":"UTC","SITE":"AFETR","TLE_LINE2":"2 46679  53.0568 132.9975 0001530  68.6378 291.4775 15.06397096 70732","PERIOD":"95.592","CENTER_NAME":"EARTH","LAUNCH_DATE":"2020-10-18","OBJECT_TYPE":"PAYLOAD","MEAN_MOTION_DOT":"-0.00000586","REV_AT_EPOCH":"7073","EPOCH":"2022-01-25T18:18:37.519200","REF_FRAME":"TEME","TLE_LINE1":"1 46679U 20073K   22025.76293425 -.00000586  00000-0 -20467-4 0  9997","MEAN_ELEMENT_THEORY":"SGP4","RA_OF_ASC_NODE":"132.9975","DECAY_DATE":null,"COUNTRY_CODE":"US","SEMIMAJOR_AXIS":"6925.357","BSTAR":"-0.00002046700000","EPHEMERIS_TYPE":"0","CLASSIFICATION_TYPE":"U","INCLINATION":"53.0568","OBJECT_NAME":"STARLINK-1773","APOAPSIS":"548.282","ECCENTRICITY":"0.00015300","NORAD_CAT_ID":"46679"},{"GP_ID":"194644270","PERIAPSIS":"545.835","ELEMENT_SET_NO":"999","FILE":"3283711","MEAN_MOTION":"15.06404044","RCS_SIZE":"LARGE","MEAN_MOTION_DDOT":"0.0000000000000","MEAN_ANOMALY":"277.8335","OBJECT_ID":"2020-073L","PERIOD":"95.592","TLE_LINE2":"2 46680  53.0559 167.6881 0001972  82.2878 277.8335 15.06404044 70251","SITE":"AFETR","TIME_SYSTEM":"UTC","ARG_OF_PERICENTER":"82.2878","CENTER_NAME":"EARTH","REF_FRAME":"TEME","MEAN_ELEMENT_THEORY":"SGP4","TLE_LINE1":"1 46680U 20073L   22025.83157186  .00000402  00000-0  45911-4 0  9996","REV_AT_EPOCH":"7025","OBJECT_TYPE":"PAYLOAD","MEAN_MOTION_DOT":"0.00000402","EPOCH":"2022-01-25T19:57:27.808704","LAUNCH_DATE":"2020-10-18","COUNTRY_CODE":"US","DECAY_DATE":null,"RA_OF_ASC_NODE":"167.6881","APOAPSIS":"548.567","ECCENTRICITY":"0.00019720","NORAD_CAT_ID":"46680","OBJECT_NAME":"STARLINK-1774","SEMIMAJOR_AXIS":"6925.336","CLASSIFICATION_TYPE":"U","BSTAR":"0.00004591100000","EPHEMERIS_TYPE":"0","INCLINATION":"53.0559"},{"CENTER_NAME":"EARTH","TLE_LINE1":"1 46681U 20073M   22025.86843110  .00000349  00000-0  42331-4 0  9992","MEAN_ELEMENT_THEORY":"SGP4","REF_FRAME":"TEME","OBJECT_TYPE":"PAYLOAD","REV_AT_EPOCH":"7025","MEAN_MOTION_DOT":"0.00000349","EPOCH":"2022-01-25T20:50:32.447040","LAUNCH_DATE":"2020-10-18","COUNTRY_CODE":"US","DECAY_DATE":null,"RA_OF_ASC_NODE":"167.5397","NORAD_CAT_ID":"46681","APOAPSIS":"548.713","ECCENTRICITY":"0.00021870","OBJECT_NAME":"STARLINK-1775","CLASSIFICATION_TYPE":"U","BSTAR":"0.00004233100000","EPHEMERIS_TYPE":"0","INCLINATION":"53.0535","SEMIMAJOR_AXIS":"6925.333","GP_ID":"194642519","ELEMENT_SET_NO":"999","PERIAPSIS":"545.684","FILE":"3283711","MEAN_MOTION":"15.06405038","RCS_SIZE":"LARGE","MEAN_MOTION_DDOT":"0.0000000000000","MEAN_ANOMALY":"278.5734","OBJECT_ID":"2020-073M","PERIOD":"95.592","TLE_LINE2":"2 46681  53.0535 167.5397 0002187  81.5502 278.5734 15.06405038 70257","SITE":"AFETR","ARG_OF_PERICENTER":"81.5502","TIME_SYSTEM":"UTC"},{"DECAY_DATE":null,"RA_OF_ASC_NODE":"168.0057","COUNTRY_CODE":"US","OBJECT_NAME":"STARLINK-1776","SEMIMAJOR_AXIS":"6925.349","BSTAR":"-0.00006383700000","CLASSIFICATION_TYPE":"U","EPHEMERIS_TYPE":"0","INCLINATION":"53.0531","APOAPSIS":"548.680","ECCENTRICITY":"0.00021170","NORAD_CAT_ID":"46682","CENTER_NAME":"EARTH","LAUNCH_DATE":"2020-10-18","REF_FRAME":"TEME","TLE_LINE1":"1 46682U 20073N   22025.76155067 -.00001233  00000-0 -63837-4 0  9998","MEAN_ELEMENT_THEORY":"SGP4","MEAN_MOTION_DOT":"-0.00001233","OBJECT_TYPE":"PAYLOAD","REV_AT_EPOCH":"7024","EPOCH":"2022-01-25T18:16:37.977888","OBJECT_ID":"2020-073N","MEAN_MOTION_DDOT":"0.0000000000000","MEAN_ANOMALY":"278.3473","SITE":"AFETR","ARG_OF_PERICENTER":"81.7756","TIME_SYSTEM":"UTC","PERIOD":"95.592","TLE_LINE2":"2 46682  53.0531 168.0057 0002117  81.7756 278.3473 15.06399848 70247","GP_ID":"194642769","PERIAPSIS":"545.748","ELEMENT_SET_NO":"999","MEAN_MOTION":"15.06399848","RCS_SIZE":"LARGE","FILE":"3283711"},{"TLE_LINE2":"2 46684  53.0522 153.6567 0001765  77.2520 282.8666 15.06394397 70914","PERIOD":"95.592","ARG_OF_PERICENTER":"77.2520","TIME_SYSTEM":"UTC","SITE":"AFETR","MEAN_ANOMALY":"282.8666","MEAN_MOTION_DDOT":"0.0000000000000","OBJECT_ID":"2020-073Q","FILE":"3283531","RCS_SIZE":"LARGE","MEAN_MOTION":"15.06394397","ELEMENT_SET_NO":"999","PERIAPSIS":"546.008","GP_ID":"194616936","NORAD_CAT_ID":"46684","APOAPSIS":"548.453","ECCENTRICITY":"0.00017650","EPHEMERIS_TYPE":"0","BSTAR":"-0.00007609000000","INCLINATION":"53.0522","CLASSIFICATION_TYPE":"U","SEMIMAJOR_AXIS":"6925.366","OBJECT_NAME":"STARLINK-1780","COUNTRY_CODE":"US","RA_OF_ASC_NODE":"153.6567","DECAY_DATE":null,"OBJECT_TYPE":"PAYLOAD","MEAN_MOTION_DOT":"-0.00001415","EPOCH":"2022-01-25T14:48:57.280032","REV_AT_EPOCH":"7091","TLE_LINE1":"1 46684U 20073Q   22025.61732963 -.00001415  00000-0 -76090-4 0  9997","MEAN_ELEMENT_THEORY":"SGP4","REF_FRAME":"TEME","LAUNCH_DATE":"2020-10-18","CENTER_NAME":"EARTH"},{"CENTER_NAME":"EARTH","LAUNCH_DATE":"2020-10-18","REF_FRAME":"TEME","TLE_LINE1":"1 46685U 20073R   22025.87212356 -.00001895  00000-0 -10831-3 0  9997","MEAN_ELEMENT_THEORY":"SGP4","OBJECT_TYPE":"PAYLOAD","MEAN_MOTION_DOT":"-0.00001895","EPOCH":"2022-01-25T20:55:51.475584","REV_AT_EPOCH":"7025","DECAY_DATE":null,"RA_OF_ASC_NODE":"167.5203","COUNTRY_CODE":"US","OBJECT_NAME":"STARLINK-1781","SEMIMAJOR_AXIS":"6925.352","BSTAR":"-0.00010831000000","EPHEMERIS_TYPE":"0","CLASSIFICATION_TYPE":"U","INCLINATION":"53.0565","APOAPSIS":"548.595","ECCENTRICITY":"0.00019900","NORAD_CAT_ID":"46685","GP_ID":"194643771","PERIAPSIS":"545.839","ELEMENT_SET_NO":"999","MEAN_MOTION":"15.06398904","RCS_SIZE":"LARGE","FILE":"3283711","OBJECT_ID":"2020-073R","MEAN_MOTION_DDOT":"0.0000000000000","MEAN_ANOMALY":"277.5851","SITE":"AFETR","TIME_SYSTEM":"UTC","ARG_OF_PERICENTER":"82.5364","PERIOD":"95.592","TLE_LINE2":"2 46685  53.0565 167.5203 0001990  82.5364 277.5851 15.06398904 70250"},{"OBJECT_ID":"2020-073S","MEAN_MOTION_DDOT":"0.0000000000000","MEAN_ANOMALY":"276.8428","SITE":"AFETR","ARG_OF_PERICENTER":"83.2797","TIME_SYSTEM":"UTC","PERIOD":"95.592","TLE_LINE2":"2 46686  53.0546 168.4924 0002076  83.2797 276.8428 15.06400501 70220","GP_ID":"194643019","PERIAPSIS":"545.774","ELEMENT_SET_NO":"999","MEAN_MOTION":"15.06400501","RCS_SIZE":"LARGE","FILE":"3283711","DECAY_DATE":null,"RA_OF_ASC_NODE":"168.4924","COUNTRY_CODE":"US","OBJECT_NAME":"STARLINK-1783","SEMIMAJOR_AXIS":"6925.347","CLASSIFICATION_TYPE":"U","BSTAR":"0.00001089800000","EPHEMERIS_TYPE":"0","INCLINATION":"53.0546","APOAPSIS":"548.650","ECCENTRICITY":"0.00020760","NORAD_CAT_ID":"46686","CENTER_NAME":"EARTH","LAUNCH_DATE":"2020-10-18","REF_FRAME":"TEME","TLE_LINE1":"1 46686U 20073S   22025.65465418 -.00000119  00000-0  10898-4 0  9994","MEAN_ELEMENT_THEORY":"SGP4","OBJECT_TYPE":"PAYLOAD","MEAN_MOTION_DOT":"-0.00000119","REV_AT_EPOCH":"7022","EPOCH":"2022-01-25T15:42:42.121152"},{"DECAY_DATE":null,"RA_OF_ASC_NODE":"133.8449","COUNTRY_CODE":"US","OBJECT_NAME":"STARLINK-1784","SEMIMAJOR_AXIS":"6925.328","BSTAR":"0.00017449000000","INCLINATION":"53.0540","EPHEMERIS_TYPE":"0","CLASSIFICATION_TYPE":"U","APOAPSIS":"548.242","ECCENTRICITY":"0.00015140","NORAD_CAT_ID":"46687","CENTER_NAME":"EARTH","LAUNCH_DATE":"2020-10-18","REF_FRAME":"TEME","TLE_LINE1":"1 46687U 20073T   22025.57494568  .00002319  00000-0  17449-3 0  9995","MEAN_ELEMENT_THEORY":"SGP4","EPOCH":"2022-01-25T13:47:55.306752","OBJECT_TYPE":"PAYLOAD","MEAN_MOTION_DOT":"0.00002319","REV_AT_EPOCH":"7118","OBJECT_ID":"2020-073T","MEAN_MOTION_DDOT":"0.0000000000000","MEAN_ANOMALY":"282.5397","SITE":"AFETR","ARG_OF_PERICENTER":"77.5761","TIME_SYSTEM":"UTC","PERIOD":"95.592","TLE_LINE2":"2 46687  53.0540 133.8449 0001514  77.5761 282.5397 15.06406692 71188","GP_ID":"194617337","PERIAPSIS":"546.145","ELEMENT_SET_NO":"999","MEAN_MOTION":"15.06406692","RCS_SIZE":"LARGE","FILE":"3283525"},{"COUNTRY_CODE":"US","DECAY_DATE":null,"RA_OF_ASC_NODE":"112.5967","ECCENTRICITY":"0.00065590","APOAPSIS":"280.477","NORAD_CAT_ID":"46688","OBJECT_NAME":"STARLINK-1786","SEMIMAJOR_AXIS":"6654.247","INCLINATION":"53.0511","BSTAR":"0.00279940000000","EPHEMERIS_TYPE":"0","CLASSIFICATION_TYPE":"U","CENTER_NAME":"EARTH","REF_FRAME":"TEME","TLE_LINE1":"1 46688U 20073U   22025.65743352  .01400241  10689-2  27994-2 0  9991","MEAN_ELEMENT_THEORY":"SGP4","OBJECT_TYPE":"PAYLOAD","EPOCH":"2022-01-25T15:46:42.256128","MEAN_MOTION_DOT":"0.01400241","REV_AT_EPOCH":"7149","LAUNCH_DATE":"2020-10-18","MEAN_MOTION_DDOT":"0.0010689000000","MEAN_ANOMALY":"25.7046","OBJECT_ID":"2020-073U","PERIOD":"90.034","TLE_LINE2":"2 46688  53.0511 112.5967 0006559 334.4237  25.7046 15.99389921 71492","SITE":"AFETR","TIME_SYSTEM":"UTC","ARG_OF_PERICENTER":"334.4237","GP_ID":"194643521","PERIAPSIS":"271.748","ELEMENT_SET_NO":"999","FILE":"3283711","MEAN_MOTION":"15.99389921","RCS_SIZE":"LARGE"},{"ARG_OF_PERICENTER":"80.4621","TIME_SYSTEM":"UTC","SITE":"AFETR","TLE_LINE2":"2 46689  53.0551 168.4557 0001934  80.4621 279.6586 15.06391284 71479","PERIOD":"95.593","OBJECT_ID":"2020-073V","MEAN_ANOMALY":"279.6586","MEAN_MOTION_DDOT":"0.0000000000000","RCS_SIZE":"LARGE","MEAN_MOTION":"15.06391284","FILE":"3283711","ELEMENT_SET_NO":"999","PERIAPSIS":"545.901","GP_ID":"194644271","INCLINATION":"53.0551","BSTAR":"0.00002476800000","EPHEMERIS_TYPE":"0","CLASSIFICATION_TYPE":"U","SEMIMAJOR_AXIS":"6925.375","OBJECT_NAME":"STARLINK-1788","NORAD_CAT_ID":"46689","APOAPSIS":"548.580","ECCENTRICITY":"0.00019340","RA_OF_ASC_NODE":"168.4557","DECAY_DATE":null,"COUNTRY_CODE":"US","LAUNCH_DATE":"2020-10-18","OBJECT_TYPE":"PAYLOAD","EPOCH":"2022-01-25T15:58:37.706880","MEAN_MOTION_DOT":"0.00000087","REV_AT_EPOCH":"7147","TLE_LINE1":"1 46689U 20073V   22025.66571420  .00000087  00000-0  24768-4 0  9993","MEAN_ELEMENT_THEORY":"SGP4","REF_FRAME":"TEME","CENTER_NAME":"EARTH"}];
